KUIPER-00089            
1 64834U 25151U   26020.32350022  .00008609  00000+0  11559-2 0  9991
2 64834  51.9001 139.4633 0001374 169.3950 190.7042 14.79967281 28355
KUIPER-00090            
1 64835U 25151V   26020.25002315  .00054825  00000+0  72265-2 0  9995
2 64835  51.8990 132.3263 0001388  91.4803 194.6898 14.79555440  5672
KUIPER-00091            
1 64836U 25151W   26020.32619807  .00008575  00000+0  11517-2 0  9998
2 64836  51.9006 136.9572 0007268 136.3124 223.8415 14.79948971 28381
KUIPER-00092            
1 64837U 25151X   26020.31819672  .00005736  00000+0  78063-3 0  9996
2 64837  51.9004 144.4912 0002734 124.5538 235.5683 14.79942678 29491
KUIPER-00093            
1 64838U 25151Y   26019.64010805  .00004373  00000+0  60203-3 0  9995
2 64838  51.8990 149.9731 0002826 131.5781 228.5424 14.79949572 28140
KUIPER-00094            
1 64839U 25151Z   26020.30298508  .00017760  00000+0  12427-2 0  9997
2 64839  51.8897 124.9269 0004541 108.2646 251.8822 15.05320611 28556
KUIPER-00081            
1 65132U 25171A   26020.23559266  .00008977  00000+0  12048-2 0  9998
2 65132  51.9022   2.3366 0001766  57.0702 303.0430 14.79939619 25861
KUIPER-00088            
1 65133U 25171B   26020.26744770  .00009919  00000+0  12783-2 0  9991
2 65133  51.9018  20.2263 0000676 140.7489 219.3523 14.81549330 25618
